{"type": "FeatureCollection", "features": [ {"type": "Feature", "properties": {"norad_id": 17070, "name": "POLAR BEAR", "group": "nnss", "lat": -80.23250540751422, "lon": 5.932229979143503, "alt_km": 1013.2050469493115, "timestamp": "2025-12-14T09:36:23.305248+00:00", "meta": {"OBJECT_NAME": "POLAR BEAR", "OBJECT_ID": "1986-088A", "EPOCH": "2025-12-13T15:14:01.606848", "MEAN_MOTION": 13.75250909, "ECCENTRICITY": 0.00410266, "INCLINATION": 89.6173, "RA_OF_ASC_NODE": 183.738, "ARG_OF_PERICENTER": 116.6417, "MEAN_ANOMALY": 315.5624, "EPHEMERIS_TYPE": 0, "CLASSIFICATION_TYPE": "U", "NORAD_CAT_ID": 17070, "ELEMENT_SET_NO": 999, "REV_AT_EPOCH": 95991, "BSTAR": 0.00013726016, "MEAN_MOTION_DOT": 1.44e-06, "MEAN_MOTION_DDOT": 0}, "tle": {"line1": "1 17070U 86088A   25347.63474082  .00000144  00000+0  13726-3 0  9990", "line2": "2 17070  89.6173 183.7380 0041026 116.6417 315.5624 13.75250909959910"}}, "geometry": {"type": "Point", "coordinates": [5.932229979143503, -80.23250540751422]}}, {"type": "Feature", "properties": {"norad_id": 18361, "name": "OSCAR 27", "group": "nnss", "lat": -22.808302776236378, "lon": 79.49205133718173, "alt_km": 1132.2821923684205, "timestamp": "2025-12-14T09:36:23.305259+00:00", "meta": {"OBJECT_NAME": "OSCAR 27", "OBJECT_ID": "1987-080A", "EPOCH": "2025-12-13T15:51:54.969696", "MEAN_MOTION": 13.449069, "ECCENTRICITY": 0.01029824, "INCLINATION": 90.3743, "RA_OF_ASC_NODE": 79.3069, "ARG_OF_PERICENTER": 221.1462, "MEAN_ANOMALY": 138.189, "EPHEMERIS_TYPE": 0, "CLASSIFICATION_TYPE": "U", "NORAD_CAT_ID": 18361, "ELEMENT_SET_NO": 999, "REV_AT_EPOCH": 87569, "BSTAR": 0.00020145558, "MEAN_MOTION_DOT": 1.3e-06, "MEAN_MOTION_DDOT": 0}, "tle": {"line1": "1 18361U 87080A   25347.66105289  .00000130  00000+0  20146-3 0  9999", "line2": "2 18361  90.3743  79.3069 0102982 221.1462 138.1890 13.44906900875692"}}, "geometry": {"type": "Point", "coordinates": [79.49205133718173, -22.808302776236378]}}, {"type": "Feature", "properties": {"norad_id": 18362, "name": "OSCAR 29", "group": "nnss", "lat": -13.24226144323557, "lon": 79.88181375995376, "alt_km": 1115.949132528578, "timestamp": "2025-12-14T09:36:23.305269+00:00", "meta": {"OBJECT_NAME": "OSCAR 29", "OBJECT_ID": "1987-080B", "EPOCH": "2025-12-13T16:40:20.604288", "MEAN_MOTION": 13.44448562, "ECCENTRICITY": 0.01039726, "INCLINATION": 90.3753, "RA_OF_ASC_NODE": 79.767, "ARG_OF_PERICENTER": 244.3921, "MEAN_ANOMALY": 288.2929, "EPHEMERIS_TYPE": 0, "CLASSIFICATION_TYPE": "U", "NORAD_CAT_ID": 18362, "ELEMENT_SET_NO": 999, "REV_AT_EPOCH": 87522, "BSTAR": 0.00017478508, "MEAN_MOTION_DOT": 1.12e-06, "MEAN_MOTION_DDOT": 0}, "tle": {"line1": "1 18362U 87080B   25347.69468292  .00000112  00000+0  17479-3 0  9994", "line2": "2 18362  90.3753  79.7670 0103972 244.3921 288.2929 13.44448562875227"}}, "geometry": {"type": "Point", "coordinates": [79.88181375995376, -13.24226144323557]}}, {"type": "Feature", "properties": {"norad_id": 19070, "name": "OSCAR 23", "group": "nnss", "lat": 20.5690089000872, "lon": 16.323607751264667, "alt_km": 1283.6361679061847, "timestamp": "2025-12-14T09:36:23.305280+00:00", "meta": {"OBJECT_NAME": "OSCAR 23", "OBJECT_ID": "1988-033A", "EPOCH": "2025-12-13T16:01:05.914848", "MEAN_MOTION": 13.27787249, "ECCENTRICITY": 0.01896017, "INCLINATION": 90.3213, "RA_OF_ASC_NODE": 16.4214, "ARG_OF_PERICENTER": 177.3446, "MEAN_ANOMALY": 303.3074, "EPHEMERIS_TYPE": 0, "CLASSIFICATION_TYPE": "U", "NORAD_CAT_ID": 19070, "ELEMENT_SET_NO": 999, "REV_AT_EPOCH": 82265, "BSTAR": 0.00017212872, "MEAN_MOTION_DOT": 9.4e-07, "MEAN_MOTION_DDOT": 0}, "tle": {"line1": "1 19070U 88033A   25347.66742957  .00000094  00000+0  17213-3 0  9995", "line2": "2 19070  90.3213  16.4214 0189601 177.3446 303.3074 13.27787249822655"}}, "geometry": {"type": "Point", "coordinates": [16.323607751264667, 20.5690089000872]}}, {"type": "Feature", "properties": {"norad_id": 19071, "name": "OSCAR 32", "group": "nnss", "lat": 48.08124141877394, "lon": -163.0650261592797, "alt_km": 1027.0165798173593, "timestamp": "2025-12-14T09:36:23.305290+00:00", "meta": {"OBJECT_NAME": "OSCAR 32", "OBJECT_ID": "1988-033B", "EPOCH": "2025-12-13T15:26:28.350816", "MEAN_MOTION": 13.27954086, "ECCENTRICITY": 0.01884391, "INCLINATION": 90.3218, "RA_OF_ASC_NODE": 16.5527, "ARG_OF_PERICENTER": 164.2817, "MEAN_ANOMALY": 312.3528, "EPHEMERIS_TYPE": 0, "CLASSIFICATION_TYPE": "U", "NORAD_CAT_ID": 19071, "ELEMENT_SET_NO": 999, "REV_AT_EPOCH": 82277, "BSTAR": 0.00018489187, "MEAN_MOTION_DOT": 1.01e-06, "MEAN_MOTION_DDOT": 0}, "tle": {"line1": "1 19071U 88033B   25347.64338369  .00000101  00000+0  18489-3 0  9997", "line2": "2 19071  90.3218  16.5527 0188439 164.2817 312.3528 13.27954086822776"}}, "geometry": {"type": "Point", "coordinates": [-163.0650261592797, 48.08124141877394]}}, {"type": "Feature", "properties": {"norad_id": 19223, "name": "NOVA 2", "group": "nnss", "lat": -60.19648713327759, "lon": 78.24788698102911, "alt_km": 1173.7487235849385, "timestamp": "2025-12-14T09:36:23.305301+00:00", "meta": {"OBJECT_NAME": "NOVA 2", "OBJECT_ID": "1988-052A", "EPOCH": "2025-12-13T16:36:29.236320", "MEAN_MOTION": 13.22935932, "ECCENTRICITY": 0.003051, "INCLINATION": 89.9871, "RA_OF_ASC_NODE": 78.2713, "ARG_OF_PERICENTER": 14.3163, "MEAN_ANOMALY": 154.6747, "EPHEMERIS_TYPE": 0, "CLASSIFICATION_TYPE": "U", "NORAD_CAT_ID": 19223, "ELEMENT_SET_NO": 999, "REV_AT_EPOCH": 80960, "BSTAR": 0.00015150283, "MEAN_MOTION_DOT": 7.2e-07, "MEAN_MOTION_DDOT": 0}, "tle": {"line1": "1 19223U 88052A   25347.69200505  .00000072  00000+0  15150-3 0  9991", "line2": "2 19223  89.9871  78.2713 0030510  14.3163 154.6747 13.22935932809602"}}, "geometry": {"type": "Point", "coordinates": [78.24788698102911, -60.19648713327759]}}, {"type": "Feature", "properties": {"norad_id": 19419, "name": "OSCAR 25", "group": "nnss", "lat": 47.039036617990774, "lon": -159.7128338845405, "alt_km": 1116.849240751274, "timestamp": "2025-12-14T09:36:23.305325+00:00", "meta": {"OBJECT_NAME": "OSCAR 25", "OBJECT_ID": "1988-074A", "EPOCH": "2025-12-13T15:39:53.608320", "MEAN_MOTION": 13.4262341, "ECCENTRICITY": 0.00944837, "INCLINATION": 90.0347, "RA_OF_ASC_NODE": 20.2473, "ARG_OF_PERICENTER": 243.193, "MEAN_ANOMALY": 239.5418, "EPHEMERIS_TYPE": 0, "CLASSIFICATION_TYPE": "U", "NORAD_CAT_ID": 19419, "ELEMENT_SET_NO": 999, "REV_AT_EPOCH": 82652, "BSTAR": 0.0001902703, "MEAN_MOTION_DOT": 1.19e-06, "MEAN_MOTION_DDOT": 0}, "tle": {"line1": "1 19419U 88074A   25347.65270380  .00000119  00000+0  19027-3 0  9995", "line2": "2 19419  90.0347  20.2473 0094483 243.1930 239.5418 13.42623410826528"}}, "geometry": {"type": "Point", "coordinates": [-159.7128338845405, 47.039036617990774]}}, {"type": "Feature", "properties": {"norad_id": 19420, "name": "OSCAR 31", "group": "nnss", "lat": 17.9990331871561, "lon": 20.5883112947551, "alt_km": 1155.1594056358836, "timestamp": "2025-12-14T09:36:23.305338+00:00", "meta": {"OBJECT_NAME": "OSCAR 31", "OBJECT_ID": "1988-074B", "EPOCH": "2025-12-13T16:15:14.842368", "MEAN_MOTION": 13.42584694, "ECCENTRICITY": 0.00928063, "INCLINATION": 90.0363, "RA_OF_ASC_NODE": 20.5975, "ARG_OF_PERICENTER": 237.2434, "MEAN_ANOMALY": 247.7295, "EPHEMERIS_TYPE": 0, "CLASSIFICATION_TYPE": "U", "NORAD_CAT_ID": 19420, "ELEMENT_SET_NO": 999, "REV_AT_EPOCH": 82663, "BSTAR": 0.00016034805, "MEAN_MOTION_DOT": 1.01e-06, "MEAN_MOTION_DDOT": 0}, "tle": {"line1": "1 19420U 88074B   25347.67725512  .00000101  00000+0  16035-3 0  9998", "line2": "2 19420  90.0363  20.5975 0092806 237.2434 247.7295 13.42584694826634"}}, "geometry": {"type": "Point", "coordinates": [20.5883112947551, 17.9990331871561]}}]}